{
  "type": "FeatureCollection",
  "features": [
    {
      "type": "Feature",
      "properties": {
        "norad_id": 27954,
        "name": "GALAXY 13 (HORIZONS-1)",
        "group": "intelsat",
        "lat": 0.734376529440755,
        "lon": -147.41497488769772,
        "alt_km": 35779.537556111856,
        "timestamp": "2025-12-09T18:55:16.906124+00:00",
        "meta_object_name": "GALAXY 13 (HORIZONS-1)",
        "meta_object_id": "2003-044A",
        "meta_epoch": "2025-12-09T14:04:00.761952",
        "meta_mean_motion": 1.00270127,
        "meta_eccentricity": 0.00020235,
        "meta_inclination": 0.9273,
        "meta_ra_of_asc_node": 86.5108,
        "meta_arg_of_pericenter": 162.3964,
        "meta_mean_anomaly": 250.6744,
        "meta_ephemeris_type": 0,
        "meta_classification_type": "U",
        "meta_norad_cat_id": 27954,
        "meta_element_set_no": 999,
        "meta_rev_at_epoch": 4467,
        "meta_bstar": 0,
        "meta_mean_motion_dot": 1.35e-06,
        "meta_mean_motion_ddot": 0,
        "tle_line1": "1 27954U 03044A   25343.58611993  .00000135  00000+0  00000+0 0  9994",
        "tle_line2": "2 27954   0.9273  86.5108 0002023 162.3964 250.6744  1.00270127 44675"
      },
      "geometry": {
        "type": "Point",
        "coordinates": [
          -147.41497488769772,
          0.734376529440755
        ]
      }
    },
    {
      "type": "Feature",
      "properties": {
        "norad_id": 28358,
        "name": "INTELSAT 10-02",
        "group": "intelsat",
        "lat": -0.01896615977159282,
        "lon": 1.6285562236731261,
        "alt_km": 35785.59014602784,
        "timestamp": "2025-12-09T18:55:16.906136+00:00",
        "meta_object_name": "INTELSAT 10-02",
        "meta_object_id": "2004-022A",
        "meta_epoch": "2025-12-09T13:34:07.706208",
        "meta_mean_motion": 1.00269981,
        "meta_eccentricity": 0.00011153,
        "meta_inclination": 0.0308,
        "meta_ra_of_asc_node": 72.1506,
        "meta_arg_of_pericenter": 211.8162,
        "meta_mean_anomaly": 357.1457,
        "meta_ephemeris_type": 0,
        "meta_classification_type": "U",
        "meta_norad_cat_id": 28358,
        "meta_element_set_no": 999,
        "meta_rev_at_epoch": 7865,
        "meta_bstar": 0,
        "meta_mean_motion_dot": -9e-08,
        "meta_mean_motion_ddot": 0,
        "tle_line1": "1 28358U 04022A   25343.56536697 -.00000009  00000+0  00000+0 0  9996",
        "tle_line2": "2 28358   0.0308  72.1506 0001115 211.8162 357.1457  1.00269981 78653"
      },
      "geometry": {
        "type": "Point",
        "coordinates": [
          1.6285562236731261,
          -0.01896615977159282
        ]
      }
    },
    {
      "type": "Feature",
      "properties": {
        "norad_id": 28626,
        "name": "XM-3 (RHYTHM)",
        "group": "intelsat",
        "lat": 0.1374390246793408,
        "lon": 130.93515719571494,
        "alt_km": 36164.48584212194,
        "timestamp": "2025-12-09T18:55:16.906147+00:00",
        "meta_object_name": "XM-3 (RHYTHM)",
        "meta_object_id": "2005-008A",
        "meta_epoch": "2025-12-09T12:28:36.481152",
        "meta_mean_motion": 0.989537,
        "meta_eccentricity": 0.00013754,
        "meta_inclination": 0.1665,
        "meta_ra_of_asc_node": 81.2047,
        "meta_arg_of_pericenter": 264.6895,
        "meta_mean_anomaly": 49.3764,
        "meta_ephemeris_type": 0,
        "meta_classification_type": "U",
        "meta_norad_cat_id": 28626,
        "meta_element_set_no": 999,
        "meta_rev_at_epoch": 4071,
        "meta_bstar": 0,
        "meta_mean_motion_dot": -2.38e-06,
        "meta_mean_motion_ddot": 0,
        "tle_line1": "1 28626U 05008A   25343.51986668 -.00000238  00000+0  00000+0 0  9995",
        "tle_line2": "2 28626   0.1665  81.2047 0001375 264.6895  49.3764  0.98953700 40718"
      },
      "geometry": {
        "type": "Point",
        "coordinates": [
          130.93515719571494,
          0.1374390246793408
        ]
      }
    },
    {
      "type": "Feature",
      "properties": {
        "norad_id": 28659,
        "name": "DIRECTV 8",
        "group": "intelsat",
        "lat": -0.03284254702378754,
        "lon": -116.46493039693257,
        "alt_km": 35773.306452814075,
        "timestamp": "2025-12-09T18:55:16.906159+00:00",
        "meta_object_name": "DIRECTV 8",
        "meta_object_id": "2005-019A",
        "meta_epoch": "2025-12-09T12:12:55.941120",
        "meta_mean_motion": 1.00271942,
        "meta_eccentricity": 0.00031831,
        "meta_inclination": 0.0171,
        "meta_ra_of_asc_node": 5.5935,
        "meta_arg_of_pericenter": 257.2096,
        "meta_mean_anomaly": 239.8843,
        "meta_ephemeris_type": 0,
        "meta_classification_type": "U",
        "meta_norad_cat_id": 28659,
        "meta_element_set_no": 999,
        "meta_rev_at_epoch": 7517,
        "meta_bstar": 0,
        "meta_mean_motion_dot": 3e-08,
        "meta_mean_motion_ddot": 0,
        "tle_line1": "1 28659U 05019A   25343.50898080  .00000003  00000+0  00000+0 0  9991",
        "tle_line2": "2 28659   0.0171   5.5935 0003183 257.2096 239.8843  1.00271942 75177"
      },
      "geometry": {
        "type": "Point",
        "coordinates": [
          -116.46493039693257,
          -0.03284254702378754
        ]
      }
    },
    {
      "type": "Feature",
      "properties": {
        "norad_id": 28702,
        "name": "GALAXY 28 (G-28)",
        "group": "intelsat",
        "lat": -0.6326355334639995,
        "lon": -86.09805767446596,
        "alt_km": 35775.294766331135,
        "timestamp": "2025-12-09T18:55:16.906171+00:00",
        "meta_object_name": "GALAXY 28 (G-28)",
        "meta_object_id": "2005-022A",
        "meta_epoch": "2025-12-09T12:29:48.392736",
        "meta_mean_motion": 1.00271081,
        "meta_eccentricity": 0.00026859,
        "meta_inclination": 2.8104,
        "meta_ra_of_asc_node": 81.3192,
        "meta_arg_of_pericenter": 179.8142,
        "meta_mean_anomaly": 276.1436,
        "meta_ephemeris_type": 0,
        "meta_classification_type": "U",
        "meta_norad_cat_id": 28702,
        "meta_element_set_no": 999,
        "meta_rev_at_epoch": 5007,
        "meta_bstar": 0,
        "meta_mean_motion_dot": -1.85e-06,
        "meta_mean_motion_ddot": 0,
        "tle_line1": "1 28702U 05022A   25343.52069899 -.00000185  00000+0  00000+0 0  9996",
        "tle_line2": "2 28702   2.8104  81.3192 0002685 179.8142 276.1436  1.00271081 50074"
      },
      "geometry": {
        "type": "Point",
        "coordinates": [
          -86.09805767446596,
          -0.6326355334639995
        ]
      }
    },
    {
      "type": "Feature",
      "properties": {
        "norad_id": 29236,
        "name": "GALAXY 16 (G-16)",
        "group": "intelsat",
        "lat": -0.016141224533314378,
        "lon": -96.41349031701962,
        "alt_km": 35774.23905415367,
        "timestamp": "2025-12-09T18:55:16.906182+00:00",
        "meta_object_name": "GALAXY 16 (G-16)",
        "meta_object_id": "2006-023A",
        "meta_epoch": "2025-12-09T13:15:09.203040",
        "meta_mean_motion": 1.002722,
        "meta_eccentricity": 0.0002825,
        "meta_inclination": 0.037,
        "meta_ra_of_asc_node": 155.0146,
        "meta_arg_of_pericenter": 97.4048,
        "meta_mean_anomaly": 285.8988,
        "meta_ephemeris_type": 0,
        "meta_classification_type": "U",
        "meta_norad_cat_id": 29236,
        "meta_element_set_no": 999,
        "meta_rev_at_epoch": 7107,
        "meta_bstar": 0,
        "meta_mean_motion_dot": -1.24e-06,
        "meta_mean_motion_ddot": 0,
        "tle_line1": "1 29236U 06023A   25343.55218985 -.00000124  00000+0  00000+0 0  9999",
        "tle_line2": "2 29236   0.0370 155.0146 0002825  97.4048 285.8988  1.00272200 71072"
      },
      "geometry": {
        "type": "Point",
        "coordinates": [
          -96.41349031701962,
          -0.016141224533314378
        ]
      }
    },
    {
      "type": "Feature",
      "properties": {
        "norad_id": 29494,
        "name": "DIRECTV 9S",
        "group": "intelsat",
        "lat": 0.04230693966254149,
        "lon": -98.62105862243581,
        "alt_km": 35773.01696325328,
        "timestamp": "2025-12-09T18:55:16.906235+00:00",
        "meta_object_name": "DIRECTV 9S",
        "meta_object_id": "2006-043A",
        "meta_epoch": "2025-12-09T13:13:51.873312",
        "meta_mean_motion": 1.00270727,
        "meta_eccentricity": 0.00031569,
        "meta_inclination": 1.9321,
        "meta_ra_of_asc_node": 83.2391,
        "meta_arg_of_pericenter": 178.3097,
        "meta_mean_anomaly": 274.2425,
        "meta_ephemeris_type": 0,
        "meta_classification_type": "U",
        "meta_norad_cat_id": 29494,
        "meta_element_set_no": 999,
        "meta_rev_at_epoch": 4948,
        "meta_bstar": 0,
        "meta_mean_motion_dot": -1.11e-06,
        "meta_mean_motion_ddot": 0,
        "tle_line1": "1 29494U 06043A   25343.55129483 -.00000111  00000+0  00000+0 0  9997",
        "tle_line2": "2 29494   1.9321  83.2391 0003156 178.3097 274.2425  1.00270727 49489"
      },
      "geometry": {
        "type": "Point",
        "coordinates": [
          -98.62105862243581,
          0.04230693966254149
        ]
      }
    }
  ]
}